STARLINK-2041
1 47657U 21012AP  26090.83335647  .00924662  00000+0  13828-1 0  9992
2 47657  53.1595 319.2366 0001382  92.8672 291.3629 15.52093667  5794
STARLINK-2141
1 47731U 21017K   26090.73535233  .00140358  00000+0  22560-2 0  9998
2 47731  53.1593  98.3792 0004085  64.7258 295.4175 15.52046559281272
